{{Infobox Planet  
| name = 451 Patientia
| image = 
| caption = 
| discovery=yes | physical_characteristics = yes | bgcolour=#FFFFC0
| discovery_ref = 
| discoverer = [[奥古斯特·沙卢瓦|奥古斯特·沙卢瓦]]
| discovery_site = [[尼斯|尼斯]]
| discovered =  1899年12月4日
| mp_name = 451
| alt_names = 1899 EY
| named_after = 忍耐
| mp_category=[[小行星带|主带小行星]]
| orbit_ref = <ref>[http://ssd.jpl.nasa.gov/sbdb.cgi?sstr=451 451 Patientia (1899 EY)]</ref>
| epoch = 2011年8月27日
| semimajor= 3.062678091856947AU
| perihelion=2.824870313925382AU
| aphelion=3.300485869788512[[天文单位|AU]]
| eccentricity =.07764700396161404				
| period =1957.719446308211[[日|地球日]]<br>5.36[[年|地球年]] 
| inclination=15.21803238608319[[角度|°]]
| asc_node=89.33585428053235°	
| arg_peri=338.7710279745978°
| mean_anomaly=306.3854264793947°
| avg_speed=
 | dimensions=224.96千米
 | mass=
 | density=
 | surface_grav=
 | escape_velocity=
 | rotation=9.727小时
 | spectral_type=
 | magnitude=
 | abs_magnitude=6.65
 | albedo=0.0764	
 | single_temperature=
}}
'''小行星451'''（'''451 Patientia'''），是由[[法国|法国]][[天文学家|天文学家]][[奥古斯特·沙卢瓦|奥古斯特·沙卢瓦]]于1899年12月4日在法国[[尼斯|尼斯]]发现的[[小行星带|主带]][[小行星|小行星]]。

小行星451以“忍耐”命名。

== 参考资料 ==
{{Reflist}}

{{Minor Planet Number|(450)[[小行星450|小行星450]]|(452)[[小行星452|小行星452]]}}

[[Category:小行星带天体|Category:小行星带天体]]
[[Category:1899年发现的小行星|Category:1899年发现的小行星]]